{
  "type": "FeatureCollection",
  "features": [
    {
      "type": "Feature",
      "properties": {
        "norad_id": 29994,
        "name": "FENGYUN 1C DEB",
        "group": "fengyun-1c-debris",
        "lat": -62.21372512982171,
        "lon": 38.0427462569452,
        "alt_km": 887.9050294057179,
        "timestamp": "2025-12-14T16:47:40.956652+00:00",
        "meta_object_name": "FENGYUN 1C DEB",
        "meta_object_id": "1999-025LU",
        "meta_epoch": "2025-12-14T00:16:13.377216",
        "meta_mean_motion": 14.02644562,
        "meta_eccentricity": 0.0129572,
        "meta_inclination": 98.8293,
        "meta_ra_of_asc_node": 20.2195,
        "meta_arg_of_pericenter": 210.0511,
        "meta_mean_anomaly": 210.2296,
        "meta_ephemeris_type": 0,
        "meta_classification_type": "U",
        "meta_norad_cat_id": 29994,
        "meta_element_set_no": 999,
        "meta_rev_at_epoch": 96744,
        "meta_bstar": 0.00014066679,
        "meta_mean_motion_dot": 1.91e-06,
        "meta_mean_motion_ddot": 0,
        "tle_line1": "1 29994U 99025LU  25348.01126594  .00000191  00000+0  14067-3 0  9999",
        "tle_line2": "2 29994  98.8293  20.2195 0129572 210.0511 210.2296 14.02644562967445"
      },
      "geometry": {
        "type": "Point",
        "coordinates": [
          38.0427462569452,
          -62.21372512982171
        ]
      }
    },
    {
      "type": "Feature",
      "properties": {
        "norad_id": 29996,
        "name": "FENGYUN 1C DEB",
        "group": "fengyun-1c-debris",
        "lat": 14.442419111253987,
        "lon": -151.437927764406,
        "alt_km": 848.8403447452647,
        "timestamp": "2025-12-14T16:47:40.956662+00:00",
        "meta_object_name": "FENGYUN 1C DEB",
        "meta_object_id": "1999-025LW",
        "meta_epoch": "2025-12-13T16:43:25.191840",
        "meta_mean_motion": 14.09428674,
        "meta_eccentricity": 0.01315437,
        "meta_inclination": 99.3041,
        "meta_ra_of_asc_node": 25.1064,
        "meta_arg_of_pericenter": 85.3082,
        "meta_mean_anomaly": 32.2587,
        "meta_ephemeris_type": 0,
        "meta_classification_type": "U",
        "meta_norad_cat_id": 29996,
        "meta_element_set_no": 999,
        "meta_rev_at_epoch": 96150,
        "meta_bstar": 0.0022640017,
        "meta_mean_motion_dot": 4.237e-05,
        "meta_mean_motion_ddot": 0,
        "tle_line1": "1 29996U 99025LW  25347.69681935  .00004237  00000+0  22640-2 0  9999",
        "tle_line2": "2 29996  99.3041  25.1064 0131543  85.3082  32.2587 14.09428674961507"
      },
      "geometry": {
        "type": "Point",
        "coordinates": [
          -151.437927764406,
          14.442419111253987
        ]
      }
    },
    {
      "type": "Feature",
      "properties": {
        "norad_id": 29997,
        "name": "FENGYUN 1C DEB",
        "group": "fengyun-1c-debris",
        "lat": 61.29894036346104,
        "lon": -164.31190102222277,
        "alt_km": 937.6967403845756,
        "timestamp": "2025-12-14T16:47:40.956672+00:00",
        "meta_object_name": "FENGYUN 1C DEB",
        "meta_object_id": "1999-025LX",
        "meta_epoch": "2025-12-13T23:22:01.358976",
        "meta_mean_motion": 14.00881059,
        "meta_eccentricity": 0.00802218,
        "meta_inclination": 98.8818,
        "meta_ra_of_asc_node": 358.3874,
        "meta_arg_of_pericenter": 323.9264,
        "meta_mean_anomaly": 92.9437,
        "meta_ephemeris_type": 0,
        "meta_classification_type": "U",
        "meta_norad_cat_id": 29997,
        "meta_element_set_no": 999,
        "meta_rev_at_epoch": 96407,
        "meta_bstar": 0.0010096565,
        "meta_mean_motion_dot": 1.508e-05,
        "meta_mean_motion_ddot": 0,
        "tle_line1": "1 29997U 99025LX  25347.97362684  .00001508  00000+0  10097-2 0  9999",
        "tle_line2": "2 29997  98.8818 358.3874 0080221 323.9264  92.9437 14.00881059964076"
      },
      "geometry": {
        "type": "Point",
        "coordinates": [
          -164.31190102222277,
          61.29894036346104
        ]
      }
    },
    {
      "type": "Feature",
      "properties": {
        "norad_id": 29998,
        "name": "FENGYUN 1C DEB",
        "group": "fengyun-1c-debris",
        "lat": -22.27413505175874,
        "lon": -134.6257652390477,
        "alt_km": 801.9018035073605,
        "timestamp": "2025-12-14T16:47:40.956682+00:00",
        "meta_object_name": "FENGYUN 1C DEB",
        "meta_object_id": "1999-025LY",
        "meta_epoch": "2025-12-13T21:21:31.727520",
        "meta_mean_motion": 14.28552069,
        "meta_eccentricity": 0.00048351,
        "meta_inclination": 99.3065,
        "meta_ra_of_asc_node": 48.3624,
        "meta_arg_of_pericenter": 295.4742,
        "meta_mean_anomaly": 64.5937,
        "meta_ephemeris_type": 0,
        "meta_classification_type": "U",
        "meta_norad_cat_id": 29998,
        "meta_element_set_no": 999,
        "meta_rev_at_epoch": 97891,
        "meta_bstar": 0.0010690142,
        "meta_mean_motion_dot": 2.632e-05,
        "meta_mean_motion_ddot": 0,
        "tle_line1": "1 29998U 99025LY  25347.88995055  .00002632  00000+0  10690-2 0  9992",
        "tle_line2": "2 29998  99.3065  48.3624 0004835 295.4742  64.5937 14.28552069978911"
      },
      "geometry": {
        "type": "Point",
        "coordinates": [
          -134.6257652390477,
          -22.27413505175874
        ]
      }
    },
    {
      "type": "Feature",
      "properties": {
        "norad_id": 29999,
        "name": "FENGYUN 1C DEB",
        "group": "fengyun-1c-debris",
        "lat": -77.63645105548507,
        "lon": 109.39582083975638,
        "alt_km": 935.9902709928492,
        "timestamp": "2025-12-14T16:47:40.956692+00:00",
        "meta_object_name": "FENGYUN 1C DEB",
        "meta_object_id": "1999-025LZ",
        "meta_epoch": "2025-12-13T22:57:19.043424",
        "meta_mean_motion": 14.20136437,
        "meta_eccentricity": 0.01895986,
        "meta_inclination": 98.5765,
        "meta_ra_of_asc_node": 332.1845,
        "meta_arg_of_pericenter": 123.0488,
        "meta_mean_anomaly": 298.578,
        "meta_ephemeris_type": 0,
        "meta_classification_type": "U",
        "meta_norad_cat_id": 29999,
        "meta_element_set_no": 999,
        "meta_rev_at_epoch": 97741,
        "meta_bstar": 0.00036278897,
        "meta_mean_motion_dot": 8.84e-06,
        "meta_mean_motion_ddot": 0,
        "tle_line1": "1 29999U 99025LZ  25347.95647041  .00000884  00000+0  36279-3 0  9999",
        "tle_line2": "2 29999  98.5765 332.1845 0189598 123.0488 298.5780 14.20136437977410"
      },
      "geometry": {
        "type": "Point",
        "coordinates": [
          109.39582083975638,
          -77.63645105548507
        ]
      }
    },
    {
      "type": "Feature",
      "properties": {
        "norad_id": 30001,
        "name": "FENGYUN 1C DEB",
        "group": "fengyun-1c-debris",
        "lat": -22.745100538402333,
        "lon": 67.6241549124921,
        "alt_km": 780.0490360288723,
        "timestamp": "2025-12-14T16:47:40.956703+00:00",
        "meta_object_name": "FENGYUN 1C DEB",
        "meta_object_id": "1999-025MA",
        "meta_epoch": "2025-12-13T23:22:13.501632",
        "meta_mean_motion": 14.38612685,
        "meta_eccentricity": 0.00376516,
        "meta_inclination": 98.96,
        "meta_ra_of_asc_node": 63.0742,
        "meta_arg_of_pericenter": 95.0591,
        "meta_mean_anomaly": 84.5014,
        "meta_ephemeris_type": 0,
        "meta_classification_type": "U",
        "meta_norad_cat_id": 30001,
        "meta_element_set_no": 999,
        "meta_rev_at_epoch": 97449,
        "meta_bstar": 0.0029856726,
        "meta_mean_motion_dot": 9.183e-05,
        "meta_mean_motion_ddot": 0,
        "tle_line1": "1 30001U 99025MA  25347.97376738  .00009183  00000+0  29857-2 0  9993",
        "tle_line2": "2 30001  98.9600  63.0742 0037651  95.0591  84.5014 14.38612685974490"
      },
      "geometry": {
        "type": "Point",
        "coordinates": [
          67.6241549124921,
          -22.745100538402333
        ]
      }
    },
    {
      "type": "Feature",
      "properties": {
        "norad_id": 30003,
        "name": "FENGYUN 1C DEB",
        "group": "fengyun-1c-debris",
        "lat": 46.70625955166831,
        "lon": 153.86459533814585,
        "alt_km": 839.6007679931881,
        "timestamp": "2025-12-14T16:47:40.956713+00:00",
        "meta_object_name": "FENGYUN 1C DEB",
        "meta_object_id": "1999-025MC",
        "meta_epoch": "2025-12-13T21:21:52.581888",
        "meta_mean_motion": 13.85625074,
        "meta_eccentricity": 0.0143419,
        "meta_inclination": 99.5767,
        "meta_ra_of_asc_node": 322.715,
        "meta_arg_of_pericenter": 116.8036,
        "meta_mean_anomaly": 298.7727,
        "meta_ephemeris_type": 0,
        "meta_classification_type": "U",
        "meta_norad_cat_id": 30003,
        "meta_element_set_no": 999,
        "meta_rev_at_epoch": 95504,
        "meta_bstar": 0.00040485373,
        "meta_mean_motion_dot": 4.56e-06,
        "meta_mean_motion_ddot": 0,
        "tle_line1": "1 30003U 99025MC  25347.89019192  .00000456  00000+0  40485-3 0  9999",
        "tle_line2": "2 30003  99.5767 322.7150 0143419 116.8036 298.7727 13.85625074955044"
      },
      "geometry": {
        "type": "Point",
        "coordinates": [
          153.86459533814585,
          46.70625955166831
        ]
      }
    }
  ]
}